{
    "links": {
        "self": "http://www.neowsapp.com/rest/v1/neo/3605578?api_key=iIulBulltgU6a56xZRHN4H3l9WmuAYTsLGpBGhQ2"
    },
    "id": "3605578",
    "neo_reference_id": "3605578",
    "name": "(2012 LJ2)",
    "designation": "2012 LJ2",
    "nasa_jpl_url": "http://ssd.jpl.nasa.gov/sbdb.cgi?sstr=3605578",
    "absolute_magnitude_h": 21.6,
    "estimated_diameter": {
        "kilometers": {
            "estimated_diameter_min": 0.1272198785,
            "estimated_diameter_max": 0.2844722965
        },
        "meters": {
            "estimated_diameter_min": 127.2198785394,
            "estimated_diameter_max": 284.4722965033
        },
        "miles": {
            "estimated_diameter_min": 0.0790507431,
            "estimated_diameter_max": 0.1767628354
        },
        "feet": {
            "estimated_diameter_min": 417.3880663071,
            "estimated_diameter_max": 933.3080892598
        }
    },
    "is_potentially_hazardous_asteroid": false,
    "close_approach_data": [
        {
            "close_approach_date": "2012-06-08",
            "close_approach_date_full": "2012-Jun-08 21:26",
            "epoch_date_close_approach": 1339190760000,
            "relative_velocity": {
                "kilometers_per_second": "21.5996797924",
                "kilometers_per_hour": "77758.8472527008",
                "miles_per_hour": "48316.3237276574"
            },
            "miss_distance": {
                "astronomical": "0.1532541653",
                "lunar": "59.6158703017",
                "kilometers": "22926496.697507911",
                "miles": "14245864.4583187318"
            },
            "orbiting_body": "Earth"
        }
    ],
    "orbital_data": {
        "orbit_id": "11",
        "orbit_determination_date": "2017-04-06 08:49:37",
        "first_observation_date": "2012-06-11",
        "last_observation_date": "2012-06-25",
        "data_arc_in_days": 14,
        "observations_used": 59,
        "orbit_uncertainty": "8",
        "minimum_orbit_intersection": ".152377",
        "jupiter_tisserand_invariant": "3.726",
        "epoch_osculation": "2456091.5",
        "eccentricity": ".5346543450215154",
        "semi_major_axis": "1.789662537790556",
        "inclination": "34.33028770911115",
        "ascending_node_longitude": "86.74455986059485",
        "orbital_period": "874.4906045448871",
        "perihelion_distance": ".8328116858386033",
        "perihelion_argument": "94.64747714952878",
        "aphelion_distance": "2.74651338974251",
        "perihelion_time": "2456028.217638963895",
        "mean_anomaly": "26.05133760682781",
        "mean_motion": ".4116682307723083",
        "equinox": "J2000",
        "orbit_class": {
            "orbit_class_type": "APO",
            "orbit_class_description": "Near-Earth asteroid orbits which cross the Earth’s orbit similar to that of 1862 Apollo",
            "orbit_class_range": "a (semi-major axis) > 1.0 AU; q (perihelion) < 1.017 AU"
        }
    },
    "is_sentry_object": false
}